{"type":"FeatureCollection","crs":{"type":"name","properties":{"name":"EPSG:4326"}},"features":[{"type":"Feature","id":387116,"geometry":{"type":"Point","coordinates":[0.739709000013377,42.6933700057737]},"properties":{"ACT_IDE_ACTUACIO":"AC","ACT_DAT_ACTUACIO":1785515286000,"TAL_COD_ALARMA1":"IV","TAL_DESC_ALARMA1":"incendi vegetació","TAL_COD_ALARMA2":"VF","TAL_DESC_ALARMA2":"Incendi vegetació forestal","ACT_SITUACIO":"I","ACT_DAT_ACTUAL":1785515366000,"ACT_DAT_INICI":1785515286000,"ACT_DAT_FI":null,"ACT_URGENT":"S","MUNICIPI_DPX":"Vielha e Mijaran","MUNICIPI_SIG":"Vielha e Mijaran","DATA_ACT":1785934021000,"OBJECTID":1092748,"ACT_NUM_VEH":0,"ESRI_OID":387116,"GlobalID":"e5c20dc9-4ff7-4d84-adc1-2c7ba1c3f0f8","COM_FASE":"Controlat"}},{"type":"Feature","id":387156,"geometry":{"type":"Point","coordinates":[0.764396025238642,42.5709982346389]},"properties":{"ACT_IDE_ACTUACIO":"AC","ACT_DAT_ACTUACIO":1785519611000,"TAL_COD_ALARMA1":"IV","TAL_DESC_ALARMA1":"incendi vegetació","TAL_COD_ALARMA2":"VF","TAL_DESC_ALARMA2":"Incendi vegetació forestal","ACT_SITUACIO":"I","ACT_DAT_ACTUAL":1785519618000,"ACT_DAT_INICI":1785519611000,"ACT_DAT_FI":null,"ACT_URGENT":"S","MUNICIPI_DPX":"Vilaller","MUNICIPI_SIG":"Vilaller","DATA_ACT":1786304063000,"OBJECTID":1092797,"ACT_NUM_VEH":0,"ESRI_OID":387156,"GlobalID":"af008619-2235-4dae-8f06-441cc25dc25f","COM_FASE":"Controlat"}},{"type":"Feature","id":388716,"geometry":{"type":"Point","coordinates":[1.54050065483621,3.05521148927141]},"properties":{"ACT_IDE_ACTUACIO":"AC","ACT_DAT_ACTUACIO":1785844585000,"TAL_COD_ALARMA1":"IV","TAL_DESC_ALARMA1":"incendi vegetació","TAL_COD_ALARMA2":"VF","TAL_DESC_ALARMA2":"Incendi vegetació forestal","ACT_SITUACIO":"I","ACT_DAT_ACTUAL":1785844604000,"ACT_DAT_INICI":1785844601000,"ACT_DAT_FI":null,"ACT_URGENT":"S","MUNICIPI_DPX":"Mont-ral","MUNICIPI_SIG":"Mont-ral","DATA_ACT":1786281620000,"OBJECTID":1095455,"ACT_NUM_VEH":0,"ESRI_OID":388716,"GlobalID":"8064a2e2-0e1a-4e99-a66e-947a84e3723c","COM_FASE":"Controlat"}},{"type":"Feature","id":389615,"geometry":{"type":"Point","coordinates":[2.78213667168941,42.218747992966]},"properties":{"ACT_IDE_ACTUACIO":"AC","ACT_DAT_ACTUACIO":1786028462000,"TAL_COD_ALARMA1":"IV","TAL_DESC_ALARMA1":"incendi vegetació","TAL_COD_ALARMA2":"VF","TAL_DESC_ALARMA2":"Incendi vegetació forestal","ACT_SITUACIO":"P","ACT_DAT_ACTUAL":1786028479000,"ACT_DAT_INICI":1786028477000,"ACT_DAT_FI":null,"ACT_URGENT":"S","MUNICIPI_DPX":"Cabanelles","MUNICIPI_SIG":"Cabanelles","DATA_ACT":1786276879000,"OBJECTID":1097070,"ACT_NUM_VEH":0,"ESRI_OID":389615,"GlobalID":"238204c6-cf20-442b-bd5c-44ff18738fbe","COM_FASE":null}},{"type":"Feature","id":390183,"geometry":{"type":"Point","coordinates":[1.92345966808659,41.9412798667567]},"properties":{"ACT_IDE_ACTUACIO":"AC","ACT_DAT_ACTUACIO":1786108745000,"TAL_COD_ALARMA1":"IV","TAL_DESC_ALARMA1":"incendi vegetació","TAL_COD_ALARMA2":"VF","TAL_DESC_ALARMA2":"Incendi vegetació forestal","ACT_SITUACIO":"A","ACT_DAT_ACTUAL":1786108750000,"ACT_DAT_INICI":1786108745000,"ACT_DAT_FI":null,"ACT_URGENT":"S","MUNICIPI_DPX":"Gaià","MUNICIPI_SIG":"Gaià","DATA_ACT":1786298158000,"OBJECTID":1097943,"ACT_NUM_VEH":0,"ESRI_OID":390183,"GlobalID":"fe757127-494d-41e6-a39c-643923abcaf0","COM_FASE":"Controlat"}},{"type":"Feature","id":390446,"geometry":{"type":"Point","coordinates":[3.09611412942739,41.903171282543]},"properties":{"ACT_IDE_ACTUACIO":"AC","ACT_DAT_ACTUACIO":1786157628000,"TAL_COD_ALARMA1":"IV","TAL_DESC_ALARMA1":"incendi vegetació","TAL_COD_ALARMA2":"VF","TAL_DESC_ALARMA2":"Incendi vegetació forestal","ACT_SITUACIO":"P","ACT_DAT_ACTUAL":1786157629000,"ACT_DAT_INICI":1786157628000,"ACT_DAT_FI":null,"ACT_URGENT":"S","MUNICIPI_DPX":"Forallac","MUNICIPI_SIG":"Forallac","DATA_ACT":1786291248000,"OBJECTID":1098295,"ACT_NUM_VEH":0,"ESRI_OID":390446,"GlobalID":"43100a7f-c4d6-4333-b387-ad25ec57b9a7","COM_FASE":"Controlat"}},{"type":"Feature","id":390484,"geometry":{"type":"Point","coordinates":[2.7217729782719,42.2408900317753]},"properties":{"ACT_IDE_ACTUACIO":"AC","ACT_DAT_ACTUACIO":1786169257000,"TAL_COD_ALARMA1":"IV","TAL_DESC_ALARMA1":"incendi vegetació","TAL_COD_ALARMA2":"VF","TAL_DESC_ALARMA2":"Incendi vegetació forestal","ACT_SITUACIO":"P","ACT_DAT_ACTUAL":1786169258000,"ACT_DAT_INICI":1786169257000,"ACT_DAT_FI":null,"ACT_URGENT":"S","MUNICIPI_DPX":"Beuda","MUNICIPI_SIG":"Beuda","DATA_ACT":1786276867000,"OBJECTID":1098362,"ACT_NUM_VEH":0,"ESRI_OID":390484,"GlobalID":"27a255d0-c5d2-41b2-9a8b-0bb9fe90d1f5","COM_FASE":null}},{"type":"Feature","id":390545,"geometry":{"type":"Point","coordinates":[1.540701121603,41.4635741433064]},"properties":{"ACT_IDE_ACTUACIO":"AC","ACT_DAT_ACTUACIO":1786037749000,"TAL_COD_ALARMA1":"IV","TAL_DESC_ALARMA1":"incendi vegetació","TAL_COD_ALARMA2":"VF","TAL_DESC_ALARMA2":"Incendi vegetació forestal","ACT_SITUACIO":"I","ACT_DAT_ACTUAL":1786037788000,"ACT_DAT_INICI":1786037749000,"ACT_DAT_FI":null,"ACT_URGENT":"S","MUNICIPI_DPX":"la Llacuna","MUNICIPI_SIG":"la Llacuna","DATA_ACT":1786291601000,"OBJECTID":1097329,"ACT_NUM_VEH":0,"ESRI_OID":390545,"GlobalID":"26389628-875a-4020-b2ea-bac11d05dfc8","COM_FASE":"Controlat"}},{"type":"Feature","id":390803,"geometry":{"type":"Point","coordinates":[0.923023750432962,42.7268111087476]},"properties":{"ACT_IDE_ACTUACIO":"AC","ACT_DAT_ACTUACIO":1786214085000,"TAL_COD_ALARMA1":"IV","TAL_DESC_ALARMA1":"incendi vegetació","TAL_COD_ALARMA2":"VF","TAL_DESC_ALARMA2":"Incendi vegetació forestal","ACT_SITUACIO":"I","ACT_DAT_ACTUAL":1786214096000,"ACT_DAT_INICI":1786214085000,"ACT_DAT_FI":null,"ACT_URGENT":"S","MUNICIPI_DPX":"Naut Aran","MUNICIPI_SIG":"Naut Aran","DATA_ACT":1786292892000,"OBJECTID":1098937,"ACT_NUM_VEH":0,"ESRI_OID":390803,"GlobalID":"9a80f614-0f89-491e-a5b9-feda6dd4a4aa","COM_FASE":null}},{"type":"Feature","id":391006,"geometry":{"type":"Point","coordinates":[2.9869165258266,42.2670476982745]},"properties":{"ACT_IDE_ACTUACIO":"AC","ACT_DAT_ACTUACIO":1786259517000,"TAL_COD_ALARMA1":"IV","TAL_DESC_ALARMA1":"incendi vegetació","TAL_COD_ALARMA2":"VU","TAL_DESC_ALARMA2":"Incendi vegetació urbana","ACT_SITUACIO":"I","ACT_DAT_ACTUAL":1786259519000,"ACT_DAT_INICI":1786259517000,"ACT_DAT_FI":null,"ACT_URGENT":"S","MUNICIPI_DPX":"Figueres","MUNICIPI_SIG":"Figueres","DATA_ACT":1786276892000,"OBJECTID":1099253,"ACT_NUM_VEH":0,"ESRI_OID":391006,"GlobalID":"311072c5-7f47-4b5d-acf2-471cc605e183","COM_FASE":null}},{"type":"Feature","id":391017,"geometry":{"type":"Point","coordinates":[0.47545319891258,41.299251348468]},"properties":{"ACT_IDE_ACTUACIO":"AC","ACT_DAT_ACTUACIO":1786262883000,"TAL_COD_ALARMA1":"IV","TAL_DESC_ALARMA1":"incendi vegetació","TAL_COD_ALARMA2":"VF","TAL_DESC_ALARMA2":"Incendi vegetació forestal","ACT_SITUACIO":"I","ACT_DAT_ACTUAL":1786262885000,"ACT_DAT_INICI":1786262883000,"ACT_DAT_FI":null,"ACT_URGENT":"S","MUNICIPI_DPX":"Riba-roja d'Ebre","MUNICIPI_SIG":"Riba-roja d'Ebre","DATA_ACT":1786295768000,"OBJECTID":1099277,"ACT_NUM_VEH":0,"ESRI_OID":391017,"GlobalID":"a61770b3-4c0f-4644-9d6d-7c9e2c400f7d","COM_FASE":null}},{"type":"Feature","id":391073,"geometry":{"type":"Point","coordinates":[0.881925762819006,42.7296151223929]},"properties":{"ACT_IDE_ACTUACIO":"AC","ACT_DAT_ACTUACIO":1786271759000,"TAL_COD_ALARMA1":"IV","TAL_DESC_ALARMA1":"incendi vegetació","TAL_COD_ALARMA2":"VF","TAL_DESC_ALARMA2":"Incendi vegetació forestal","ACT_SITUACIO":"I","ACT_DAT_ACTUAL":1786271913000,"ACT_DAT_INICI":1786271759000,"ACT_DAT_FI":null,"ACT_URGENT":"S","MUNICIPI_DPX":"Naut Aran","MUNICIPI_SIG":"Naut Aran","DATA_ACT":1786306371000,"OBJECTID":1099422,"ACT_NUM_VEH":0,"ESRI_OID":391073,"GlobalID":"b841eb0f-b26b-4d06-83ca-3c0e6b080511","COM_FASE":"Controlat"}},{"type":"Feature","id":391092,"geometry":{"type":"Point","coordinates":[1.26603901488952,42.212908446318]},"properties":{"ACT_IDE_ACTUACIO":"AC","ACT_DAT_ACTUACIO":1786274266000,"TAL_COD_ALARMA1":"IV","TAL_DESC_ALARMA1":"incendi vegetació","TAL_COD_ALARMA2":"VF","TAL_DESC_ALARMA2":"Incendi vegetació forestal","ACT_SITUACIO":"I","ACT_DAT_ACTUAL":1786274267000,"ACT_DAT_INICI":1786274266000,"ACT_DAT_FI":null,"ACT_URGENT":"S","MUNICIPI_DPX":"Coll de Nargó","MUNICIPI_SIG":"Coll de Nargó","DATA_ACT":1786300552000,"OBJECTID":1099445,"ACT_NUM_VEH":0,"ESRI_OID":391092,"GlobalID":"16dd2443-11c6-401a-a315-2d132ccc48e7","COM_FASE":"Controlat"}},{"type":"Feature","id":391111,"geometry":{"type":"Point","coordinates":[1.00489912663799,42.1851482025063]},"properties":{"ACT_IDE_ACTUACIO":"AC","ACT_DAT_ACTUACIO":1786211099000,"TAL_COD_ALARMA1":"IV","TAL_DESC_ALARMA1":"incendi vegetació","TAL_COD_ALARMA2":"VF","TAL_DESC_ALARMA2":"Incendi vegetació forestal","ACT_SITUACIO":"I","ACT_DAT_ACTUAL":1786211102000,"ACT_DAT_INICI":1786211099000,"ACT_DAT_FI":null,"ACT_URGENT":"S","MUNICIPI_DPX":"Conca de Dalt","MUNICIPI_SIG":"Conca de Dalt","DATA_ACT":1786294136000,"OBJECTID":1098896,"ACT_NUM_VEH":0,"ESRI_OID":391111,"GlobalID":"dea2f8a1-f6ba-44fa-b6ae-cef4ff57131a","COM_FASE":null}},{"type":"Feature","id":391114,"geometry":{"type":"Point","coordinates":[1.0286522173266,41.2514507252248]},"properties":{"ACT_IDE_ACTUACIO":"AC","ACT_DAT_ACTUACIO":1786277507000,"TAL_COD_ALARMA1":"IV","TAL_DESC_ALARMA1":"incendi vegetació","TAL_COD_ALARMA2":"VF","TAL_DESC_ALARMA2":"Incendi vegetació forestal","ACT_SITUACIO":"I","ACT_DAT_ACTUAL":1786277509000,"ACT_DAT_INICI":1786277507000,"ACT_DAT_FI":null,"ACT_URGENT":"S","MUNICIPI_DPX":"Vilaplana","MUNICIPI_SIG":"Vilaplana","DATA_ACT":1786290510000,"OBJECTID":1099467,"ACT_NUM_VEH":0,"ESRI_OID":391114,"GlobalID":"a4c7a60c-564e-44d9-9b38-5c200a1b7adc","COM_FASE":null}},{"type":"Feature","id":391137,"geometry":{"type":"Point","coordinates":[1.29850892424886,42.3417011011811]},"properties":{"ACT_IDE_ACTUACIO":"AC","ACT_DAT_ACTUACIO":1786281087000,"TAL_COD_ALARMA1":"IV","TAL_DESC_ALARMA1":"incendi vegetació","TAL_COD_ALARMA2":"VF","TAL_DESC_ALARMA2":"Incendi vegetació forestal","ACT_SITUACIO":"I","ACT_DAT_ACTUAL":1786281089000,"ACT_DAT_INICI":1786281087000,"ACT_DAT_FI":null,"ACT_URGENT":"S","MUNICIPI_DPX":"Montferrer i Castellbò","MUNICIPI_SIG":"Montferrer i Castellbò","DATA_ACT":1786306261000,"OBJECTID":1099493,"ACT_NUM_VEH":0,"ESRI_OID":391137,"GlobalID":"78714ce6-0004-4822-bca6-d9ee60e3657d","COM_FASE":null}},{"type":"Feature","id":391160,"geometry":{"type":"Point","coordinates":[1.63807311477545,41.372633152859]},"properties":{"ACT_IDE_ACTUACIO":"AC","ACT_DAT_ACTUACIO":1786287254000,"TAL_COD_ALARMA1":"IV","TAL_DESC_ALARMA1":"incendi vegetació","TAL_COD_ALARMA2":"VA","TAL_DESC_ALARMA2":"Incendi vegetació agrícola","ACT_SITUACIO":"I","ACT_DAT_ACTUAL":1786287257000,"ACT_DAT_INICI":1786287254000,"ACT_DAT_FI":null,"ACT_URGENT":"S","MUNICIPI_DPX":"Vilobí del Penedès","MUNICIPI_SIG":"Vilobí del Penedès","DATA_ACT":1786303559000,"OBJECTID":1099526,"ACT_NUM_VEH":0,"ESRI_OID":391160,"GlobalID":"527f680d-403a-4f56-b0b5-6c60e61d02d2","COM_FASE":null}},{"type":"Feature","id":391161,"geometry":{"type":"Point","coordinates":[2.8329460066055,41.7455315954061]},"properties":{"ACT_IDE_ACTUACIO":"AC","ACT_DAT_ACTUACIO":1786287296000,"TAL_COD_ALARMA1":"IV","TAL_DESC_ALARMA1":"incendi vegetació","TAL_COD_ALARMA2":"VF","TAL_DESC_ALARMA2":"Incendi vegetació forestal","ACT_SITUACIO":"I","ACT_DAT_ACTUAL":1786287303000,"ACT_DAT_INICI":1786287296000,"ACT_DAT_FI":null,"ACT_URGENT":"S","MUNICIPI_DPX":"Lloret de Mar","MUNICIPI_SIG":"Lloret de Mar","DATA_ACT":1786297939000,"OBJECTID":1099528,"ACT_NUM_VEH":0,"ESRI_OID":391161,"GlobalID":"05b81056-0b0c-4bbf-bfce-76389fb843c2","COM_FASE":"Extingit"}},{"type":"Feature","id":391170,"geometry":{"type":"Point","coordinates":[0.498435655665405,40.921319953376]},"properties":{"ACT_IDE_ACTUACIO":"AC","ACT_DAT_ACTUACIO":1786288373000,"TAL_COD_ALARMA1":"IV","TAL_DESC_ALARMA1":"incendi vegetació","TAL_COD_ALARMA2":"VF","TAL_DESC_ALARMA2":"Incendi vegetació forestal","ACT_SITUACIO":"I","ACT_DAT_ACTUAL":1786288397000,"ACT_DAT_INICI":1786288394000,"ACT_DAT_FI":null,"ACT_URGENT":"S","MUNICIPI_DPX":"Tivenys","MUNICIPI_SIG":"Tivenys","DATA_ACT":1786304019000,"OBJECTID":1099537,"ACT_NUM_VEH":0,"ESRI_OID":391170,"GlobalID":"bbb6607f-e351-47de-9832-1d2f4284735f","COM_FASE":null}},{"type":"Feature","id":391176,"geometry":{"type":"Point","coordinates":[2.35989297082595,42.3054116368913]},"properties":{"ACT_IDE_ACTUACIO":"AC","ACT_DAT_ACTUACIO":1786289613000,"TAL_COD_ALARMA1":"IV","TAL_DESC_ALARMA1":"incendi vegetació","TAL_COD_ALARMA2":"VF","TAL_DESC_ALARMA2":"Incendi vegetació forestal","ACT_SITUACIO":"I","ACT_DAT_ACTUAL":1786289624000,"ACT_DAT_INICI":1786289622000,"ACT_DAT_FI":null,"ACT_URGENT":"S","MUNICIPI_DPX":"Camprodon","MUNICIPI_SIG":"Camprodon","DATA_ACT":1786296938000,"OBJECTID":1099555,"ACT_NUM_VEH":0,"ESRI_OID":391176,"GlobalID":"a3b3552e-a391-46d0-9a29-4c7feb671f95","COM_FASE":null}},{"type":"Feature","id":391227,"geometry":{"type":"Point","coordinates":[2.2898036448046,41.5910939327314]},"properties":{"ACT_IDE_ACTUACIO":"AC","ACT_DAT_ACTUACIO":1786295994000,"TAL_COD_ALARMA1":"IV","TAL_DESC_ALARMA1":"incendi vegetació","TAL_COD_ALARMA2":"VU","TAL_DESC_ALARMA2":"Incendi vegetació urbana","ACT_SITUACIO":"I","ACT_DAT_ACTUAL":1786295997000,"ACT_DAT_INICI":1786295994000,"ACT_DAT_FI":null,"ACT_URGENT":"S","MUNICIPI_DPX":"Granollers","MUNICIPI_SIG":"Granollers","DATA_ACT":1786304100000,"OBJECTID":1099620,"ACT_NUM_VEH":0,"ESRI_OID":391227,"GlobalID":"3fe6d57a-39c1-4243-92f8-d1bc44fcace5","COM_FASE":null}},{"type":"Feature","id":391244,"geometry":{"type":"Point","coordinates":[2.96874128578091,42.2650898288928]},"properties":{"ACT_IDE_ACTUACIO":"AC","ACT_DAT_ACTUACIO":1786298014000,"TAL_COD_ALARMA1":"IV","TAL_DESC_ALARMA1":"incendi vegetació","TAL_COD_ALARMA2":"VF","TAL_DESC_ALARMA2":"Incendi vegetació forestal","ACT_SITUACIO":"I","ACT_DAT_ACTUAL":1786298015000,"ACT_DAT_INICI":1786298014000,"ACT_DAT_FI":null,"ACT_URGENT":"S","MUNICIPI_DPX":"Figueres","MUNICIPI_SIG":"Figueres","DATA_ACT":1786299694000,"OBJECTID":1099642,"ACT_NUM_VEH":0,"ESRI_OID":391244,"GlobalID":"2c26d63c-2d58-49c0-af93-396c8af9f93a","COM_FASE":null}},{"type":"Feature","id":391257,"geometry":{"type":"Point","coordinates":[2.78275756390743,41.9769424718193]},"properties":{"ACT_IDE_ACTUACIO":"AC","ACT_DAT_ACTUACIO":1786299094000,"TAL_COD_ALARMA1":"IV","TAL_DESC_ALARMA1":"incendi vegetació","TAL_COD_ALARMA2":"VU","TAL_DESC_ALARMA2":"Incendi vegetació urbana","ACT_SITUACIO":"I","ACT_DAT_ACTUAL":1786299099000,"ACT_DAT_INICI":1786299094000,"ACT_DAT_FI":null,"ACT_URGENT":"S","MUNICIPI_DPX":"Salt","MUNICIPI_SIG":"Salt","DATA_ACT":1786303061000,"OBJECTID":1099651,"ACT_NUM_VEH":0,"ESRI_OID":391257,"GlobalID":"7b891d2d-fd2e-44bc-9e9b-95522ad2ff92","COM_FASE":null}},{"type":"Feature","id":391271,"geometry":{"type":"Point","coordinates":[2.20148654761836,41.8037831822463]},"properties":{"ACT_IDE_ACTUACIO":"AC","ACT_DAT_ACTUACIO":1786301407000,"TAL_COD_ALARMA1":"IV","TAL_DESC_ALARMA1":"incendi vegetació","TAL_COD_ALARMA2":"VF","TAL_DESC_ALARMA2":"Incendi vegetació forestal","ACT_SITUACIO":"N","ACT_DAT_ACTUAL":1786301409000,"ACT_DAT_INICI":1786301407000,"ACT_DAT_FI":null,"ACT_URGENT":"S","MUNICIPI_DPX":"Balenyà","MUNICIPI_SIG":"Balenyà","DATA_ACT":1786301412000,"OBJECTID":1099671,"ACT_NUM_VEH":0,"ESRI_OID":391271,"GlobalID":"799ca8d2-6e87-4ff6-b1ef-24b6ff272264","COM_FASE":null}},{"type":"Feature","id":391290,"geometry":{"type":"Point","coordinates":[2.21644245003629,41.4245400475201]},"properties":{"ACT_IDE_ACTUACIO":"AC","ACT_DAT_ACTUACIO":1786304730000,"TAL_COD_ALARMA1":"IV","TAL_DESC_ALARMA1":"incendi vegetació","TAL_COD_ALARMA2":"VA","TAL_DESC_ALARMA2":"Incendi vegetació agrícola","ACT_SITUACIO":"I","ACT_DAT_ACTUAL":1786304746000,"ACT_DAT_INICI":1786304741000,"ACT_DAT_FI":null,"ACT_URGENT":"S","MUNICIPI_DPX":"Sant Adrià de Besòs","MUNICIPI_SIG":"Sant Adrià de Besòs","DATA_ACT":1786306626000,"OBJECTID":1099694,"ACT_NUM_VEH":0,"ESRI_OID":391290,"GlobalID":"5bb87b0c-c9f2-4c6c-8558-1ecd77c02124","COM_FASE":null}}]}