{"type":"FeatureCollection","features":[{"type":"Feature","id":"firms:2026-08-08:0154:0","geometry":{"type":"Point","coordinates":[-3.47644,40.24363]},"properties":{"id":"firms:2026-08-08:0154:40.244:-3.476","confidence":"nominal","frp":5.08,"acq_date":"2026-08-08","acq_time":"0154","satellite":"N21","daynight":"N","source":"FIRMS"}},{"type":"Feature","id":"firms:2026-08-08:1316:1","geometry":{"type":"Point","coordinates":[-7.50146,40.65731]},"properties":{"id":"firms:2026-08-08:1316:40.657:-7.501","confidence":"high","frp":220.28,"acq_date":"2026-08-08","acq_time":"1316","satellite":"N21","daynight":"D","source":"FIRMS"}},{"type":"Feature","id":"firms:2026-08-08:1412:2","geometry":{"type":"Point","coordinates":[-7.48958,40.65742]},"properties":{"id":"firms:2026-08-08:1412:40.657:-7.490","confidence":"high","frp":9.74,"acq_date":"2026-08-08","acq_time":"1412","satellite":"N20","daynight":"D","source":"FIRMS"}},{"type":"Feature","id":"firms:2026-08-08:1316:3","geometry":{"type":"Point","coordinates":[-7.50802,40.64568]},"properties":{"id":"firms:2026-08-08:1316:40.646:-7.508","confidence":"nominal","frp":41.49,"acq_date":"2026-08-08","acq_time":"1316","satellite":"N21","daynight":"D","source":"FIRMS"}},{"type":"Feature","id":"firms:2026-08-08:0230:4","geometry":{"type":"Point","coordinates":[-7.48918,40.63926]},"properties":{"id":"firms:2026-08-08:0230:40.639:-7.489","confidence":"nominal","frp":15.26,"acq_date":"2026-08-08","acq_time":"0230","satellite":"N","daynight":"N","source":"FIRMS"}},{"type":"Feature","id":"firms:2026-08-09:0213:5","geometry":{"type":"Point","coordinates":[-3.74414,39.93653]},"properties":{"id":"firms:2026-08-09:0213:39.937:-3.744","confidence":"nominal","frp":1.81,"acq_date":"2026-08-09","acq_time":"0213","satellite":"N","daynight":"N","source":"FIRMS"}},{"type":"Feature","id":"firms:2026-08-08:0230:6","geometry":{"type":"Point","coordinates":[-0.54141,38.37752]},"properties":{"id":"firms:2026-08-08:0230:38.378:-0.541","confidence":"nominal","frp":1.47,"acq_date":"2026-08-08","acq_time":"0230","satellite":"N","daynight":"N","source":"FIRMS"}},{"type":"Feature","id":"firms:2026-08-08:0230:7","geometry":{"type":"Point","coordinates":[-4.05454,38.66664]},"properties":{"id":"firms:2026-08-08:0230:38.667:-4.055","confidence":"nominal","frp":1.85,"acq_date":"2026-08-08","acq_time":"0230","satellite":"N","daynight":"N","source":"FIRMS"}},{"type":"Feature","id":"firms:2026-08-09:0213:8","geometry":{"type":"Point","coordinates":[-9.01034,38.92043]},"properties":{"id":"firms:2026-08-09:0213:38.920:-9.010","confidence":"nominal","frp":1.47,"acq_date":"2026-08-09","acq_time":"0213","satellite":"N","daynight":"N","source":"FIRMS"}},{"type":"Feature","id":"firms:2026-08-08:0230:9","geometry":{"type":"Point","coordinates":[-6.71774,38.31953]},"properties":{"id":"firms:2026-08-08:0230:38.320:-6.718","confidence":"nominal","frp":1.15,"acq_date":"2026-08-08","acq_time":"0230","satellite":"N","daynight":"N","source":"FIRMS"}},{"type":"Feature","id":"firms:2026-08-08:0230:10","geometry":{"type":"Point","coordinates":[-8.9382,38.50128]},"properties":{"id":"firms:2026-08-08:0230:38.501:-8.938","confidence":"nominal","frp":1.46,"acq_date":"2026-08-08","acq_time":"0230","satellite":"N","daynight":"N","source":"FIRMS"}},{"type":"Feature","id":"firms:2026-08-08:0154:11","geometry":{"type":"Point","coordinates":[-4.67232,37.62388]},"properties":{"id":"firms:2026-08-08:0154:37.624:-4.672","confidence":"nominal","frp":9.15,"acq_date":"2026-08-08","acq_time":"0154","satellite":"N21","daynight":"N","source":"FIRMS"}},{"type":"Feature","id":"firms:2026-08-08:0156:12","geometry":{"type":"Point","coordinates":[-1.9056,36.96516]},"properties":{"id":"firms:2026-08-08:0156:36.965:-1.906","confidence":"nominal","frp":2.53,"acq_date":"2026-08-08","acq_time":"0156","satellite":"N21","daynight":"N","source":"FIRMS"}},{"type":"Feature","id":"firms:2026-08-08:0156:13","geometry":{"type":"Point","coordinates":[-4.96598,37.29007]},"properties":{"id":"firms:2026-08-08:0156:37.290:-4.966","confidence":"nominal","frp":1.28,"acq_date":"2026-08-08","acq_time":"0156","satellite":"N21","daynight":"N","source":"FIRMS"}},{"type":"Feature","id":"firms:2026-08-08:1412:14","geometry":{"type":"Point","coordinates":[-6.64238,37.53178]},"properties":{"id":"firms:2026-08-08:1412:37.532:-6.642","confidence":"high","frp":155.93,"acq_date":"2026-08-08","acq_time":"1412","satellite":"N20","daynight":"D","source":"FIRMS"}},{"type":"Feature","id":"firms:2026-08-09:1353:15","geometry":{"type":"Point","coordinates":[-6.64066,37.52972]},"properties":{"id":"firms:2026-08-09:1353:37.530:-6.641","confidence":"high","frp":384.93,"acq_date":"2026-08-09","acq_time":"1353","satellite":"N20","daynight":"D","source":"FIRMS"}},{"type":"Feature","id":"firms:2026-08-08:1412:16","geometry":{"type":"Point","coordinates":[-6.66489,37.52512]},"properties":{"id":"firms:2026-08-08:1412:37.525:-6.665","confidence":"high","frp":15.31,"acq_date":"2026-08-08","acq_time":"1412","satellite":"N20","daynight":"D","source":"FIRMS"}},{"type":"Feature","id":"firms:2026-08-08:1316:17","geometry":{"type":"Point","coordinates":[-6.61129,37.51248]},"properties":{"id":"firms:2026-08-08:1316:37.512:-6.611","confidence":"high","frp":243.33,"acq_date":"2026-08-08","acq_time":"1316","satellite":"N21","daynight":"D","source":"FIRMS"}},{"type":"Feature","id":"firms:2026-08-08:1229:18","geometry":{"type":"Point","coordinates":[-6.6101,37.49738]},"properties":{"id":"firms:2026-08-08:1229:37.497:-6.610","confidence":"high","frp":297.96,"acq_date":"2026-08-08","acq_time":"1229","satellite":"N20","daynight":"D","source":"FIRMS"}},{"type":"Feature","id":"firms:2026-08-08:0156:19","geometry":{"type":"Point","coordinates":[-6.63357,37.49006]},"properties":{"id":"firms:2026-08-08:0156:37.490:-6.634","confidence":"high","frp":12.74,"acq_date":"2026-08-08","acq_time":"0156","satellite":"N21","daynight":"N","source":"FIRMS"}},{"type":"Feature","id":"firms:2026-08-08:1410:20","geometry":{"type":"Point","coordinates":[-6.67105,37.51442]},"properties":{"id":"firms:2026-08-08:1410:37.514:-6.671","confidence":"high","frp":5.66,"acq_date":"2026-08-08","acq_time":"1410","satellite":"N20","daynight":"D","source":"FIRMS"}},{"type":"Feature","id":"firms:2026-08-08:1316:21","geometry":{"type":"Point","coordinates":[-6.6361,37.48007]},"properties":{"id":"firms:2026-08-08:1316:37.480:-6.636","confidence":"high","frp":157.81,"acq_date":"2026-08-08","acq_time":"1316","satellite":"N21","daynight":"D","source":"FIRMS"}},{"type":"Feature","id":"firms:2026-08-08:0232:22","geometry":{"type":"Point","coordinates":[-5.86431,37.36005]},"properties":{"id":"firms:2026-08-08:0232:37.360:-5.864","confidence":"nominal","frp":1.39,"acq_date":"2026-08-08","acq_time":"0232","satellite":"N","daynight":"N","source":"FIRMS"}},{"type":"Feature","id":"firms:2026-08-08:0156:23","geometry":{"type":"Point","coordinates":[-6.65337,37.48802]},"properties":{"id":"firms:2026-08-08:0156:37.488:-6.653","confidence":"nominal","frp":9.47,"acq_date":"2026-08-08","acq_time":"0156","satellite":"N21","daynight":"N","source":"FIRMS"}},{"type":"Feature","id":"firms:2026-08-08:0249:24","geometry":{"type":"Point","coordinates":[-6.68132,37.47165]},"properties":{"id":"firms:2026-08-08:0249:37.472:-6.681","confidence":"nominal","frp":56.43,"acq_date":"2026-08-08","acq_time":"0249","satellite":"N20","daynight":"N","source":"FIRMS"}},{"type":"Feature","id":"firms:2026-08-08:1316:25","geometry":{"type":"Point","coordinates":[-6.64079,37.45708]},"properties":{"id":"firms:2026-08-08:1316:37.457:-6.641","confidence":"high","frp":134.25,"acq_date":"2026-08-08","acq_time":"1316","satellite":"N21","daynight":"D","source":"FIRMS"}},{"type":"Feature","id":"firms:2026-08-08:0156:26","geometry":{"type":"Point","coordinates":[-6.66755,37.45479]},"properties":{"id":"firms:2026-08-08:0156:37.455:-6.668","confidence":"high","frp":62.65,"acq_date":"2026-08-08","acq_time":"0156","satellite":"N21","daynight":"N","source":"FIRMS"}},{"type":"Feature","id":"firms:2026-08-08:1229:27","geometry":{"type":"Point","coordinates":[-6.68093,37.46295]},"properties":{"id":"firms:2026-08-08:1229:37.463:-6.681","confidence":"high","frp":16.24,"acq_date":"2026-08-08","acq_time":"1229","satellite":"N20","daynight":"D","source":"FIRMS"}},{"type":"Feature","id":"firms:2026-08-08:0232:28","geometry":{"type":"Point","coordinates":[-6.49523,37.41989]},"properties":{"id":"firms:2026-08-08:0232:37.420:-6.495","confidence":"nominal","frp":4.81,"acq_date":"2026-08-08","acq_time":"0232","satellite":"N","daynight":"N","source":"FIRMS"}},{"type":"Feature","id":"firms:2026-08-08:0154:29","geometry":{"type":"Point","coordinates":[-0.24574,42.9343]},"properties":{"id":"firms:2026-08-08:0154:42.934:-0.246","confidence":"nominal","frp":2.29,"acq_date":"2026-08-08","acq_time":"0154","satellite":"N21","daynight":"N","source":"FIRMS"}},{"type":"Feature","id":"firms:2026-08-08:0230:30","geometry":{"type":"Point","coordinates":[-3.84105,43.41292]},"properties":{"id":"firms:2026-08-08:0230:43.413:-3.841","confidence":"nominal","frp":3.01,"acq_date":"2026-08-08","acq_time":"0230","satellite":"N","daynight":"N","source":"FIRMS"}},{"type":"Feature","id":"firms:2026-08-08:0247:31","geometry":{"type":"Point","coordinates":[-5.73519,43.52526]},"properties":{"id":"firms:2026-08-08:0247:43.525:-5.735","confidence":"nominal","frp":3.3,"acq_date":"2026-08-08","acq_time":"0247","satellite":"N20","daynight":"N","source":"FIRMS"}},{"type":"Feature","id":"firms:2026-08-09:0211:32","geometry":{"type":"Point","coordinates":[-5.83457,43.5405]},"properties":{"id":"firms:2026-08-09:0211:43.541:-5.835","confidence":"nominal","frp":8.61,"acq_date":"2026-08-09","acq_time":"0211","satellite":"N","daynight":"N","source":"FIRMS"}},{"type":"Feature","id":"firms:2026-08-08:0154:33","geometry":{"type":"Point","coordinates":[-5.76451,41.54265]},"properties":{"id":"firms:2026-08-08:0154:41.543:-5.765","confidence":"nominal","frp":1.14,"acq_date":"2026-08-08","acq_time":"0154","satellite":"N21","daynight":"N","source":"FIRMS"}},{"type":"Feature","id":"firms:2026-08-08:0107:34","geometry":{"type":"Point","coordinates":[0.03255,40.43644]},"properties":{"id":"firms:2026-08-08:0107:40.436:0.033","confidence":"high","frp":20.86,"acq_date":"2026-08-08","acq_time":"0107","satellite":"N20","daynight":"N","source":"FIRMS"}},{"type":"Feature","id":"firms:2026-08-08:1212:35","geometry":{"type":"Point","coordinates":[0.04386,40.42966]},"properties":{"id":"firms:2026-08-08:1212:40.430:0.044","confidence":"high","frp":46.78,"acq_date":"2026-08-08","acq_time":"1212","satellite":"N","daynight":"D","source":"FIRMS"}},{"type":"Feature","id":"firms:2026-08-08:0230:36","geometry":{"type":"Point","coordinates":[-0.04161,40.26297]},"properties":{"id":"firms:2026-08-08:0230:40.263:-0.042","confidence":"nominal","frp":4.16,"acq_date":"2026-08-08","acq_time":"0230","satellite":"N","daynight":"N","source":"FIRMS"}},{"type":"Feature","id":"firms:2026-08-08:0247:37","geometry":{"type":"Point","coordinates":[-3.09291,40.8582]},"properties":{"id":"firms:2026-08-08:0247:40.858:-3.093","confidence":"nominal","frp":9.96,"acq_date":"2026-08-08","acq_time":"0247","satellite":"N20","daynight":"N","source":"FIRMS"}},{"type":"Feature","id":"firms:2026-08-08:1212:38","geometry":{"type":"Point","coordinates":[-1.74841,38.26577]},"properties":{"id":"firms:2026-08-08:1212:38.266:-1.748","confidence":"nominal","frp":6.03,"acq_date":"2026-08-08","acq_time":"1212","satellite":"N","daynight":"D","source":"FIRMS"}},{"type":"Feature","id":"firms:2026-08-09:0211:39","geometry":{"type":"Point","coordinates":[-5.82804,43.53979]},"properties":{"id":"firms:2026-08-09:0211:43.540:-5.828","confidence":"nominal","frp":6.39,"acq_date":"2026-08-09","acq_time":"0211","satellite":"N","daynight":"N","source":"FIRMS"}},{"type":"Feature","id":"firms:2026-08-08:1410:40","geometry":{"type":"Point","coordinates":[-6.65156,37.44878]},"properties":{"id":"firms:2026-08-08:1410:37.449:-6.652","confidence":"high","frp":26.48,"acq_date":"2026-08-08","acq_time":"1410","satellite":"N20","daynight":"D","source":"FIRMS"}},{"type":"Feature","id":"firms:2026-08-08:1353:41","geometry":{"type":"Point","coordinates":[-6.6728,37.44964]},"properties":{"id":"firms:2026-08-08:1353:37.450:-6.673","confidence":"nominal","frp":10.76,"acq_date":"2026-08-08","acq_time":"1353","satellite":"N","daynight":"D","source":"FIRMS"}},{"type":"Feature","id":"firms:2026-08-08:1410:42","geometry":{"type":"Point","coordinates":[-6.61342,37.48212]},"properties":{"id":"firms:2026-08-08:1410:37.482:-6.613","confidence":"high","frp":303.69,"acq_date":"2026-08-08","acq_time":"1410","satellite":"N20","daynight":"D","source":"FIRMS"}},{"type":"Feature","id":"firms:2026-08-08:1353:43","geometry":{"type":"Point","coordinates":[-6.59955,37.50926]},"properties":{"id":"firms:2026-08-08:1353:37.509:-6.600","confidence":"high","frp":306.83,"acq_date":"2026-08-08","acq_time":"1353","satellite":"N","daynight":"D","source":"FIRMS"}},{"type":"Feature","id":"firms:2026-08-08:1410:44","geometry":{"type":"Point","coordinates":[-6.60281,37.51895]},"properties":{"id":"firms:2026-08-08:1410:37.519:-6.603","confidence":"high","frp":114.96,"acq_date":"2026-08-08","acq_time":"1410","satellite":"N20","daynight":"D","source":"FIRMS"}},{"type":"Feature","id":"firms:2026-08-08:1316:45","geometry":{"type":"Point","coordinates":[-6.68513,37.50314]},"properties":{"id":"firms:2026-08-08:1316:37.503:-6.685","confidence":"nominal","frp":10.33,"acq_date":"2026-08-08","acq_time":"1316","satellite":"N21","daynight":"D","source":"FIRMS"}},{"type":"Feature","id":"firms:2026-08-09:1333:46","geometry":{"type":"Point","coordinates":[-6.66257,37.5431]},"properties":{"id":"firms:2026-08-09:1333:37.543:-6.663","confidence":"high","frp":60.88,"acq_date":"2026-08-09","acq_time":"1333","satellite":"N","daynight":"D","source":"FIRMS"}},{"type":"Feature","id":"firms:2026-08-08:1412:47","geometry":{"type":"Point","coordinates":[-2.21991,38.08523]},"properties":{"id":"firms:2026-08-08:1412:38.085:-2.220","confidence":"nominal","frp":28.7,"acq_date":"2026-08-08","acq_time":"1412","satellite":"N20","daynight":"D","source":"FIRMS"}},{"type":"Feature","id":"firms:2026-08-08:1412:48","geometry":{"type":"Point","coordinates":[-2.21239,38.09196]},"properties":{"id":"firms:2026-08-08:1412:38.092:-2.212","confidence":"nominal","frp":33.35,"acq_date":"2026-08-08","acq_time":"1412","satellite":"N20","daynight":"D","source":"FIRMS"}},{"type":"Feature","id":"firms:2026-08-08:1353:49","geometry":{"type":"Point","coordinates":[-0.14412,38.94173]},"properties":{"id":"firms:2026-08-08:1353:38.942:-0.144","confidence":"nominal","frp":3.57,"acq_date":"2026-08-08","acq_time":"1353","satellite":"N","daynight":"D","source":"FIRMS"}},{"type":"Feature","id":"firms:2026-08-08:1316:50","geometry":{"type":"Point","coordinates":[-7.51343,40.64825]},"properties":{"id":"firms:2026-08-08:1316:40.648:-7.513","confidence":"high","frp":107.47,"acq_date":"2026-08-08","acq_time":"1316","satellite":"N21","daynight":"D","source":"FIRMS"}},{"type":"Feature","id":"firms:2026-08-08:1353:51","geometry":{"type":"Point","coordinates":[-8.47037,41.05019]},"properties":{"id":"firms:2026-08-08:1353:41.050:-8.470","confidence":"nominal","frp":7.67,"acq_date":"2026-08-08","acq_time":"1353","satellite":"N","daynight":"D","source":"FIRMS"}},{"type":"Feature","id":"firms:2026-08-08:1353:52","geometry":{"type":"Point","coordinates":[-7.35389,41.19517]},"properties":{"id":"firms:2026-08-08:1353:41.195:-7.354","confidence":"nominal","frp":107.36,"acq_date":"2026-08-08","acq_time":"1353","satellite":"N","daynight":"D","source":"FIRMS"}},{"type":"Feature","id":"firms:2026-08-08:1412:53","geometry":{"type":"Point","coordinates":[-7.34849,41.19436]},"properties":{"id":"firms:2026-08-08:1412:41.194:-7.348","confidence":"high","frp":83.56,"acq_date":"2026-08-08","acq_time":"1412","satellite":"N20","daynight":"D","source":"FIRMS"}},{"type":"Feature","id":"firms:2026-08-08:1318:54","geometry":{"type":"Point","coordinates":[-7.68668,41.98084]},"properties":{"id":"firms:2026-08-08:1318:41.981:-7.687","confidence":"high","frp":26.93,"acq_date":"2026-08-08","acq_time":"1318","satellite":"N21","daynight":"D","source":"FIRMS"}},{"type":"Feature","id":"firms:2026-08-09:0349:55","geometry":{"type":"Point","coordinates":[-7.69402,41.97837]},"properties":{"id":"firms:2026-08-09:0349:41.978:-7.694","confidence":"high","frp":18.29,"acq_date":"2026-08-09","acq_time":"0349","satellite":"N","daynight":"N","source":"FIRMS"}},{"type":"Feature","id":"firms:2026-08-09:0315:56","geometry":{"type":"Point","coordinates":[-9.07737,38.62976]},"properties":{"id":"firms:2026-08-09:0315:38.630:-9.077","confidence":"nominal","frp":1.52,"acq_date":"2026-08-09","acq_time":"0315","satellite":"N21","daynight":"N","source":"FIRMS"}},{"type":"Feature","id":"firms:2026-08-09:0137:57","geometry":{"type":"Point","coordinates":[-4.18254,37.93135]},"properties":{"id":"firms:2026-08-09:0137:37.931:-4.183","confidence":"nominal","frp":3.13,"acq_date":"2026-08-09","acq_time":"0137","satellite":"N21","daynight":"N","source":"FIRMS"}},{"type":"Feature","id":"firms:2026-08-09:0211:58","geometry":{"type":"Point","coordinates":[-3.79443,37.21085]},"properties":{"id":"firms:2026-08-09:0211:37.211:-3.794","confidence":"nominal","frp":1.12,"acq_date":"2026-08-09","acq_time":"0211","satellite":"N","daynight":"N","source":"FIRMS"}},{"type":"Feature","id":"firms:2026-08-09:1333:59","geometry":{"type":"Point","coordinates":[-6.61134,37.55465]},"properties":{"id":"firms:2026-08-09:1333:37.555:-6.611","confidence":"high","frp":187.62,"acq_date":"2026-08-09","acq_time":"1333","satellite":"N","daynight":"D","source":"FIRMS"}},{"type":"Feature","id":"firms:2026-08-09:1257:60","geometry":{"type":"Point","coordinates":[-6.63388,37.55156]},"properties":{"id":"firms:2026-08-09:1257:37.552:-6.634","confidence":"high","frp":11.58,"acq_date":"2026-08-09","acq_time":"1257","satellite":"N21","daynight":"D","source":"FIRMS"}},{"type":"Feature","id":"firms:2026-08-09:1257:61","geometry":{"type":"Point","coordinates":[-6.61257,37.5475]},"properties":{"id":"firms:2026-08-09:1257:37.547:-6.613","confidence":"high","frp":386.46,"acq_date":"2026-08-09","acq_time":"1257","satellite":"N21","daynight":"D","source":"FIRMS"}},{"type":"Feature","id":"firms:2026-08-09:1333:62","geometry":{"type":"Point","coordinates":[-6.59159,37.5475]},"properties":{"id":"firms:2026-08-09:1333:37.547:-6.592","confidence":"high","frp":355.4,"acq_date":"2026-08-09","acq_time":"1333","satellite":"N","daynight":"D","source":"FIRMS"}},{"type":"Feature","id":"firms:2026-08-09:1353:63","geometry":{"type":"Point","coordinates":[-6.5882,37.52726]},"properties":{"id":"firms:2026-08-09:1353:37.527:-6.588","confidence":"high","frp":121.73,"acq_date":"2026-08-09","acq_time":"1353","satellite":"N20","daynight":"D","source":"FIRMS"}},{"type":"Feature","id":"firms:2026-08-09:1333:64","geometry":{"type":"Point","coordinates":[-6.57229,37.50601]},"properties":{"id":"firms:2026-08-09:1333:37.506:-6.572","confidence":"high","frp":408.04,"acq_date":"2026-08-09","acq_time":"1333","satellite":"N","daynight":"D","source":"FIRMS"}},{"type":"Feature","id":"firms:2026-08-08:1410:65","geometry":{"type":"Point","coordinates":[-6.60972,37.48236]},"properties":{"id":"firms:2026-08-08:1410:37.482:-6.610","confidence":"high","frp":303.69,"acq_date":"2026-08-08","acq_time":"1410","satellite":"N20","daynight":"D","source":"FIRMS"}},{"type":"Feature","id":"firms:2026-08-09:1333:66","geometry":{"type":"Point","coordinates":[-6.59152,37.45277]},"properties":{"id":"firms:2026-08-09:1333:37.453:-6.592","confidence":"high","frp":65,"acq_date":"2026-08-09","acq_time":"1333","satellite":"N","daynight":"D","source":"FIRMS"}},{"type":"Feature","id":"firms:2026-08-09:1353:67","geometry":{"type":"Point","coordinates":[-6.61691,37.46826]},"properties":{"id":"firms:2026-08-09:1353:37.468:-6.617","confidence":"high","frp":107.5,"acq_date":"2026-08-09","acq_time":"1353","satellite":"N20","daynight":"D","source":"FIRMS"}},{"type":"Feature","id":"firms:2026-08-09:1353:68","geometry":{"type":"Point","coordinates":[-6.58736,37.45615]},"properties":{"id":"firms:2026-08-09:1353:37.456:-6.587","confidence":"high","frp":214.02,"acq_date":"2026-08-09","acq_time":"1353","satellite":"N20","daynight":"D","source":"FIRMS"}},{"type":"Feature","id":"firms:2026-08-09:0211:69","geometry":{"type":"Point","coordinates":[-2.77158,36.7486]},"properties":{"id":"firms:2026-08-09:0211:36.749:-2.772","confidence":"nominal","frp":1.31,"acq_date":"2026-08-09","acq_time":"0211","satellite":"N","daynight":"N","source":"FIRMS"}},{"type":"Feature","id":"firms:2026-08-09:0211:70","geometry":{"type":"Point","coordinates":[-2.76731,36.74793]},"properties":{"id":"firms:2026-08-09:0211:36.748:-2.767","confidence":"nominal","frp":1.08,"acq_date":"2026-08-09","acq_time":"0211","satellite":"N","daynight":"N","source":"FIRMS"}},{"type":"Feature","id":"firms:2026-08-09:0211:71","geometry":{"type":"Point","coordinates":[-3.00588,43.31687]},"properties":{"id":"firms:2026-08-09:0211:43.317:-3.006","confidence":"nominal","frp":0.29,"acq_date":"2026-08-09","acq_time":"0211","satellite":"N","daynight":"N","source":"FIRMS"}},{"type":"Feature","id":"firms:2026-08-09:0211:72","geometry":{"type":"Point","coordinates":[-5.72586,43.55979]},"properties":{"id":"firms:2026-08-09:0211:43.560:-5.726","confidence":"nominal","frp":0.64,"acq_date":"2026-08-09","acq_time":"0211","satellite":"N","daynight":"N","source":"FIRMS"}},{"type":"Feature","id":"firms:2026-08-09:1257:73","geometry":{"type":"Point","coordinates":[-5.72951,43.52319]},"properties":{"id":"firms:2026-08-09:1257:43.523:-5.730","confidence":"nominal","frp":4.15,"acq_date":"2026-08-09","acq_time":"1257","satellite":"N21","daynight":"D","source":"FIRMS"}},{"type":"Feature","id":"firms:2026-08-09:0134:74","geometry":{"type":"Point","coordinates":[-2.45078,42.94742]},"properties":{"id":"firms:2026-08-09:0134:42.947:-2.451","confidence":"nominal","frp":4.56,"acq_date":"2026-08-09","acq_time":"0134","satellite":"N21","daynight":"N","source":"FIRMS"}},{"type":"Feature","id":"firms:2026-08-09:0211:75","geometry":{"type":"Point","coordinates":[-1.74235,42.81466]},"properties":{"id":"firms:2026-08-09:0211:42.815:-1.742","confidence":"nominal","frp":0.9,"acq_date":"2026-08-09","acq_time":"0211","satellite":"N","daynight":"N","source":"FIRMS"}},{"type":"Feature","id":"firms:2026-08-09:0211:76","geometry":{"type":"Point","coordinates":[2.68043,41.64028]},"properties":{"id":"firms:2026-08-09:0211:41.640:2.680","confidence":"nominal","frp":0.5,"acq_date":"2026-08-09","acq_time":"0211","satellite":"N","daynight":"N","source":"FIRMS"}},{"type":"Feature","id":"firms:2026-08-09:0211:77","geometry":{"type":"Point","coordinates":[-5.43128,42.52283]},"properties":{"id":"firms:2026-08-09:0211:42.523:-5.431","confidence":"nominal","frp":1.14,"acq_date":"2026-08-09","acq_time":"0211","satellite":"N","daynight":"N","source":"FIRMS"}},{"type":"Feature","id":"firms:2026-08-09:0134:78","geometry":{"type":"Point","coordinates":[-6.76804,42.55051]},"properties":{"id":"firms:2026-08-09:0134:42.551:-6.768","confidence":"nominal","frp":1.21,"acq_date":"2026-08-09","acq_time":"0134","satellite":"N21","daynight":"N","source":"FIRMS"}},{"type":"Feature","id":"firms:2026-08-08:1412:79","geometry":{"type":"Point","coordinates":[-7.97859,42.61446]},"properties":{"id":"firms:2026-08-08:1412:42.614:-7.979","confidence":"nominal","frp":123.47,"acq_date":"2026-08-08","acq_time":"1412","satellite":"N20","daynight":"D","source":"FIRMS"}},{"type":"Feature","id":"firms:2026-08-09:0134:80","geometry":{"type":"Point","coordinates":[-1.2325,41.61878]},"properties":{"id":"firms:2026-08-09:0134:41.619:-1.232","confidence":"nominal","frp":6.96,"acq_date":"2026-08-09","acq_time":"0134","satellite":"N21","daynight":"N","source":"FIRMS"}},{"type":"Feature","id":"firms:2026-08-09:0211:81","geometry":{"type":"Point","coordinates":[-1.22833,41.61923]},"properties":{"id":"firms:2026-08-09:0211:41.619:-1.228","confidence":"nominal","frp":0.99,"acq_date":"2026-08-09","acq_time":"0211","satellite":"N","daynight":"N","source":"FIRMS"}},{"type":"Feature","id":"firms:2026-08-09:0230:82","geometry":{"type":"Point","coordinates":[-7.36434,41.48669]},"properties":{"id":"firms:2026-08-09:0230:41.487:-7.364","confidence":"nominal","frp":1.68,"acq_date":"2026-08-09","acq_time":"0230","satellite":"N20","daynight":"N","source":"FIRMS"}},{"type":"Feature","id":"firms:2026-08-09:1257:83","geometry":{"type":"Point","coordinates":[0.03047,40.45794]},"properties":{"id":"firms:2026-08-09:1257:40.458:0.030","confidence":"high","frp":113.92,"acq_date":"2026-08-09","acq_time":"1257","satellite":"N21","daynight":"D","source":"FIRMS"}},{"type":"Feature","id":"firms:2026-08-09:1353:84","geometry":{"type":"Point","coordinates":[0.05632,40.42619]},"properties":{"id":"firms:2026-08-09:1353:40.426:0.056","confidence":"high","frp":14.16,"acq_date":"2026-08-09","acq_time":"1353","satellite":"N20","daynight":"D","source":"FIRMS"}},{"type":"Feature","id":"firms:2026-08-09:1333:85","geometry":{"type":"Point","coordinates":[-7.35436,41.2542]},"properties":{"id":"firms:2026-08-09:1333:41.254:-7.354","confidence":"nominal","frp":5.76,"acq_date":"2026-08-09","acq_time":"1333","satellite":"N","daynight":"D","source":"FIRMS"}},{"type":"Feature","id":"firms:2026-08-09:0230:86","geometry":{"type":"Point","coordinates":[-7.30737,41.19767]},"properties":{"id":"firms:2026-08-09:0230:41.198:-7.307","confidence":"nominal","frp":2.2,"acq_date":"2026-08-09","acq_time":"0230","satellite":"N20","daynight":"N","source":"FIRMS"}},{"type":"Feature","id":"firms:2026-08-09:0134:87","geometry":{"type":"Point","coordinates":[-4.26823,40.76257]},"properties":{"id":"firms:2026-08-09:0134:40.763:-4.268","confidence":"nominal","frp":8,"acq_date":"2026-08-09","acq_time":"0134","satellite":"N21","daynight":"N","source":"FIRMS"}},{"type":"Feature","id":"firms:2026-08-09:0134:88","geometry":{"type":"Point","coordinates":[-4.27478,40.76521]},"properties":{"id":"firms:2026-08-09:0134:40.765:-4.275","confidence":"nominal","frp":7.07,"acq_date":"2026-08-09","acq_time":"0134","satellite":"N21","daynight":"N","source":"FIRMS"}},{"type":"Feature","id":"firms:2026-08-09:1333:89","geometry":{"type":"Point","coordinates":[-4.18513,40.11258]},"properties":{"id":"firms:2026-08-09:1333:40.113:-4.185","confidence":"nominal","frp":11.6,"acq_date":"2026-08-09","acq_time":"1333","satellite":"N","daynight":"D","source":"FIRMS"}},{"type":"Feature","id":"firms:2026-08-09:0213:90","geometry":{"type":"Point","coordinates":[-4.0462,38.66681]},"properties":{"id":"firms:2026-08-09:0213:38.667:-4.046","confidence":"nominal","frp":1.11,"acq_date":"2026-08-09","acq_time":"0213","satellite":"N","daynight":"N","source":"FIRMS"}},{"type":"Feature","id":"firms:2026-08-09:0213:91","geometry":{"type":"Point","coordinates":[-6.05096,38.87063]},"properties":{"id":"firms:2026-08-09:0213:38.871:-6.051","confidence":"nominal","frp":1.71,"acq_date":"2026-08-09","acq_time":"0213","satellite":"N","daynight":"N","source":"FIRMS"}},{"type":"Feature","id":"firms:2026-08-09:0230:92","geometry":{"type":"Point","coordinates":[-6.04954,38.86939]},"properties":{"id":"firms:2026-08-09:0230:38.869:-6.050","confidence":"nominal","frp":3.77,"acq_date":"2026-08-09","acq_time":"0230","satellite":"N20","daynight":"N","source":"FIRMS"}},{"type":"Feature","id":"firms:2026-08-09:0137:93","geometry":{"type":"Point","coordinates":[-6.05171,38.86738]},"properties":{"id":"firms:2026-08-09:0137:38.867:-6.052","confidence":"nominal","frp":2.48,"acq_date":"2026-08-09","acq_time":"0137","satellite":"N21","daynight":"N","source":"FIRMS"}},{"type":"Feature","id":"firms:2026-08-09:0230:94","geometry":{"type":"Point","coordinates":[-7.34884,41.25191]},"properties":{"id":"firms:2026-08-09:0230:41.252:-7.349","confidence":"nominal","frp":1.7,"acq_date":"2026-08-09","acq_time":"0230","satellite":"N20","daynight":"N","source":"FIRMS"}},{"type":"Feature","id":"firms:2026-08-09:1153:95","geometry":{"type":"Point","coordinates":[1.23184,41.17805]},"properties":{"id":"firms:2026-08-09:1153:41.178:1.232","confidence":"nominal","frp":8.06,"acq_date":"2026-08-09","acq_time":"1153","satellite":"N","daynight":"D","source":"FIRMS"}},{"type":"Feature","id":"firms:2026-08-09:1153:96","geometry":{"type":"Point","coordinates":[1.2251,41.17591]},"properties":{"id":"firms:2026-08-09:1153:41.176:1.225","confidence":"nominal","frp":8.42,"acq_date":"2026-08-09","acq_time":"1153","satellite":"N","daynight":"D","source":"FIRMS"}},{"type":"Feature","id":"firms:2026-08-09:1331:97","geometry":{"type":"Point","coordinates":[-5.8751,37.18013]},"properties":{"id":"firms:2026-08-09:1331:37.180:-5.875","confidence":"nominal","frp":9.32,"acq_date":"2026-08-09","acq_time":"1331","satellite":"N","daynight":"D","source":"FIRMS"}},{"type":"Feature","id":"firms:2026-08-09:1333:98","geometry":{"type":"Point","coordinates":[-6.59935,37.4481]},"properties":{"id":"firms:2026-08-09:1333:37.448:-6.599","confidence":"nominal","frp":13.71,"acq_date":"2026-08-09","acq_time":"1333","satellite":"N","daynight":"D","source":"FIRMS"}},{"type":"Feature","id":"firms:2026-08-09:1353:99","geometry":{"type":"Point","coordinates":[-6.57251,37.47281]},"properties":{"id":"firms:2026-08-09:1353:37.473:-6.573","confidence":"high","frp":249.73,"acq_date":"2026-08-09","acq_time":"1353","satellite":"N20","daynight":"D","source":"FIRMS"}},{"type":"Feature","id":"firms:2026-08-09:1353:100","geometry":{"type":"Point","coordinates":[-6.56814,37.48527]},"properties":{"id":"firms:2026-08-09:1353:37.485:-6.568","confidence":"high","frp":389.01,"acq_date":"2026-08-09","acq_time":"1353","satellite":"N20","daynight":"D","source":"FIRMS"}},{"type":"Feature","id":"firms:2026-08-09:1353:101","geometry":{"type":"Point","coordinates":[-6.55129,37.49903]},"properties":{"id":"firms:2026-08-09:1353:37.499:-6.551","confidence":"high","frp":469.47,"acq_date":"2026-08-09","acq_time":"1353","satellite":"N20","daynight":"D","source":"FIRMS"}},{"type":"Feature","id":"firms:2026-08-09:1353:102","geometry":{"type":"Point","coordinates":[-6.57666,37.53648]},"properties":{"id":"firms:2026-08-09:1353:37.536:-6.577","confidence":"high","frp":259.12,"acq_date":"2026-08-09","acq_time":"1353","satellite":"N20","daynight":"D","source":"FIRMS"}},{"type":"Feature","id":"firms:2026-08-09:1353:103","geometry":{"type":"Point","coordinates":[-6.5859,37.55154]},"properties":{"id":"firms:2026-08-09:1353:37.552:-6.586","confidence":"high","frp":552.79,"acq_date":"2026-08-09","acq_time":"1353","satellite":"N20","daynight":"D","source":"FIRMS"}},{"type":"Feature","id":"firms:2026-08-09:1333:104","geometry":{"type":"Point","coordinates":[-6.59923,37.56]},"properties":{"id":"firms:2026-08-09:1333:37.560:-6.599","confidence":"high","frp":367.62,"acq_date":"2026-08-09","acq_time":"1333","satellite":"N","daynight":"D","source":"FIRMS"}},{"type":"Feature","id":"firms:2026-08-09:1353:105","geometry":{"type":"Point","coordinates":[-6.65731,37.55149]},"properties":{"id":"firms:2026-08-09:1353:37.551:-6.657","confidence":"nominal","frp":53.87,"acq_date":"2026-08-09","acq_time":"1353","satellite":"N20","daynight":"D","source":"FIRMS"}},{"type":"Feature","id":"firms:2026-08-09:1333:106","geometry":{"type":"Point","coordinates":[-6.56019,39.48418]},"properties":{"id":"firms:2026-08-09:1333:39.484:-6.560","confidence":"nominal","frp":10.02,"acq_date":"2026-08-09","acq_time":"1333","satellite":"N","daynight":"D","source":"FIRMS"}},{"type":"Feature","id":"firms:2026-08-09:1353:107","geometry":{"type":"Point","coordinates":[0.02935,40.46594]},"properties":{"id":"firms:2026-08-09:1353:40.466:0.029","confidence":"high","frp":161.11,"acq_date":"2026-08-09","acq_time":"1353","satellite":"N20","daynight":"D","source":"FIRMS"}},{"type":"Feature","id":"firms:2026-08-09:1353:108","geometry":{"type":"Point","coordinates":[-4.80979,40.306]},"properties":{"id":"firms:2026-08-09:1353:40.306:-4.810","confidence":"high","frp":11.92,"acq_date":"2026-08-09","acq_time":"1353","satellite":"N20","daynight":"D","source":"FIRMS"}},{"type":"Feature","id":"firms:2026-08-09:1257:109","geometry":{"type":"Point","coordinates":[-7.59821,41.42947]},"properties":{"id":"firms:2026-08-09:1257:41.429:-7.598","confidence":"high","frp":24.94,"acq_date":"2026-08-09","acq_time":"1257","satellite":"N21","daynight":"D","source":"FIRMS"}},{"type":"Feature","id":"firms:2026-08-09:1355:110","geometry":{"type":"Point","coordinates":[-7.59541,41.43178]},"properties":{"id":"firms:2026-08-09:1355:41.432:-7.595","confidence":"high","frp":82.78,"acq_date":"2026-08-09","acq_time":"1355","satellite":"N20","daynight":"D","source":"FIRMS"}},{"type":"Feature","id":"firms:2026-08-08:0107:111","geometry":{"type":"Point","coordinates":[1.98154,41.45314]},"properties":{"id":"firms:2026-08-08:0107:41.453:1.982","confidence":"nominal","frp":0.75,"acq_date":"2026-08-08","acq_time":"0107","satellite":"N20","daynight":"N","source":"FIRMS"}},{"type":"Feature","id":"firms:2026-08-08:0107:112","geometry":{"type":"Point","coordinates":[0.0276,40.43666]},"properties":{"id":"firms:2026-08-08:0107:40.437:0.028","confidence":"nominal","frp":20.86,"acq_date":"2026-08-08","acq_time":"0107","satellite":"N20","daynight":"N","source":"FIRMS"}},{"type":"Feature","id":"firms:2026-08-08:0109:113","geometry":{"type":"Point","coordinates":[-1.6773,37.65606]},"properties":{"id":"firms:2026-08-08:0109:37.656:-1.677","confidence":"nominal","frp":0.66,"acq_date":"2026-08-08","acq_time":"0109","satellite":"N20","daynight":"N","source":"FIRMS"}},{"type":"Feature","id":"firms:2026-08-08:0154:114","geometry":{"type":"Point","coordinates":[0.36006,42.46]},"properties":{"id":"firms:2026-08-08:0154:42.460:0.360","confidence":"nominal","frp":1.16,"acq_date":"2026-08-08","acq_time":"0154","satellite":"N21","daynight":"N","source":"FIRMS"}},{"type":"Feature","id":"firms:2026-08-08:0247:115","geometry":{"type":"Point","coordinates":[-5.86176,43.55547]},"properties":{"id":"firms:2026-08-08:0247:43.555:-5.862","confidence":"nominal","frp":2.13,"acq_date":"2026-08-08","acq_time":"0247","satellite":"N20","daynight":"N","source":"FIRMS"}},{"type":"Feature","id":"firms:2026-08-08:0154:116","geometry":{"type":"Point","coordinates":[0.17953,41.92332]},"properties":{"id":"firms:2026-08-08:0154:41.923:0.180","confidence":"nominal","frp":5.19,"acq_date":"2026-08-08","acq_time":"0154","satellite":"N21","daynight":"N","source":"FIRMS"}},{"type":"Feature","id":"firms:2026-08-08:0249:117","geometry":{"type":"Point","coordinates":[-8.90806,39.68678]},"properties":{"id":"firms:2026-08-08:0249:39.687:-8.908","confidence":"nominal","frp":1.11,"acq_date":"2026-08-08","acq_time":"0249","satellite":"N20","daynight":"N","source":"FIRMS"}},{"type":"Feature","id":"firms:2026-08-08:0249:118","geometry":{"type":"Point","coordinates":[-4.50451,36.71903]},"properties":{"id":"firms:2026-08-08:0249:36.719:-4.505","confidence":"nominal","frp":1.93,"acq_date":"2026-08-08","acq_time":"0249","satellite":"N20","daynight":"N","source":"FIRMS"}},{"type":"Feature","id":"firms:2026-08-08:1229:119","geometry":{"type":"Point","coordinates":[-6.302,37.26202]},"properties":{"id":"firms:2026-08-08:1229:37.262:-6.302","confidence":"nominal","frp":4.45,"acq_date":"2026-08-08","acq_time":"1229","satellite":"N20","daynight":"D","source":"FIRMS"}},{"type":"Feature","id":"firms:2026-08-08:1232:120","geometry":{"type":"Point","coordinates":[-2.49816,41.8318]},"properties":{"id":"firms:2026-08-08:1232:41.832:-2.498","confidence":"nominal","frp":3.11,"acq_date":"2026-08-08","acq_time":"1232","satellite":"N20","daynight":"D","source":"FIRMS"}},{"type":"Feature","id":"firms:2026-08-08:1232:121","geometry":{"type":"Point","coordinates":[-1.55239,43.25044]},"properties":{"id":"firms:2026-08-08:1232:43.250:-1.552","confidence":"nominal","frp":3.82,"acq_date":"2026-08-08","acq_time":"1232","satellite":"N20","daynight":"D","source":"FIRMS"}},{"type":"Feature","id":"firms:2026-08-08:1412:122","geometry":{"type":"Point","coordinates":[-7.51342,40.65082]},"properties":{"id":"firms:2026-08-08:1412:40.651:-7.513","confidence":"nominal","frp":6.61,"acq_date":"2026-08-08","acq_time":"1412","satellite":"N20","daynight":"D","source":"FIRMS"}},{"type":"Feature","id":"firms:2026-08-08:1412:123","geometry":{"type":"Point","coordinates":[-7.67685,41.99364]},"properties":{"id":"firms:2026-08-08:1412:41.994:-7.677","confidence":"nominal","frp":8.44,"acq_date":"2026-08-08","acq_time":"1412","satellite":"N20","daynight":"D","source":"FIRMS"}},{"type":"Feature","id":"firms:2026-08-09:0230:124","geometry":{"type":"Point","coordinates":[-3.84201,43.44241]},"properties":{"id":"firms:2026-08-09:0230:43.442:-3.842","confidence":"nominal","frp":0.69,"acq_date":"2026-08-09","acq_time":"0230","satellite":"N20","daynight":"N","source":"FIRMS"}},{"type":"Feature","id":"firms:2026-08-09:0313:125","geometry":{"type":"Point","coordinates":[-2.44913,42.94598]},"properties":{"id":"firms:2026-08-09:0313:42.946:-2.449","confidence":"nominal","frp":1.98,"acq_date":"2026-08-09","acq_time":"0313","satellite":"N21","daynight":"N","source":"FIRMS"}},{"type":"Feature","id":"firms:2026-08-09:0230:126","geometry":{"type":"Point","coordinates":[-7.80611,43.25694]},"properties":{"id":"firms:2026-08-09:0230:43.257:-7.806","confidence":"nominal","frp":0.63,"acq_date":"2026-08-09","acq_time":"0230","satellite":"N20","daynight":"N","source":"FIRMS"}},{"type":"Feature","id":"firms:2026-08-09:0230:127","geometry":{"type":"Point","coordinates":[-7.96713,42.60936]},"properties":{"id":"firms:2026-08-09:0230:42.609:-7.967","confidence":"nominal","frp":1.06,"acq_date":"2026-08-09","acq_time":"0230","satellite":"N20","daynight":"N","source":"FIRMS"}},{"type":"Feature","id":"firms:2026-08-09:0230:128","geometry":{"type":"Point","coordinates":[0.05133,40.43626]},"properties":{"id":"firms:2026-08-09:0230:40.436:0.051","confidence":"nominal","frp":7.7,"acq_date":"2026-08-09","acq_time":"0230","satellite":"N20","daynight":"N","source":"FIRMS"}},{"type":"Feature","id":"firms:2026-08-09:0134:129","geometry":{"type":"Point","coordinates":[-7.31777,41.19741]},"properties":{"id":"firms:2026-08-09:0134:41.197:-7.318","confidence":"nominal","frp":2.53,"acq_date":"2026-08-09","acq_time":"0134","satellite":"N21","daynight":"N","source":"FIRMS"}},{"type":"Feature","id":"firms:2026-08-09:1212:130","geometry":{"type":"Point","coordinates":[2.7521,42.6897]},"properties":{"id":"firms:2026-08-09:1212:42.690:2.752","confidence":"nominal","frp":1.75,"acq_date":"2026-08-09","acq_time":"1212","satellite":"N20","daynight":"D","source":"FIRMS"}},{"type":"Feature","id":"firms:2026-08-09:1214:131","geometry":{"type":"Point","coordinates":[0.88362,42.72512]},"properties":{"id":"firms:2026-08-09:1214:42.725:0.884","confidence":"nominal","frp":6.71,"acq_date":"2026-08-09","acq_time":"1214","satellite":"N20","daynight":"D","source":"FIRMS"}},{"type":"Feature","id":"firms:2026-08-09:1353:132","geometry":{"type":"Point","coordinates":[-0.91337,37.56623]},"properties":{"id":"firms:2026-08-09:1353:37.566:-0.913","confidence":"nominal","frp":3.05,"acq_date":"2026-08-09","acq_time":"1353","satellite":"N20","daynight":"D","source":"FIRMS"}},{"type":"Feature","id":"firms:2026-08-09:1353:133","geometry":{"type":"Point","coordinates":[-4.81087,40.31044]},"properties":{"id":"firms:2026-08-09:1353:40.310:-4.811","confidence":"nominal","frp":9.81,"acq_date":"2026-08-09","acq_time":"1353","satellite":"N20","daynight":"D","source":"FIRMS"}},{"type":"Feature","id":"firms:2026-08-08:0154:134","geometry":{"type":"Point","coordinates":[1.99802,41.40461]},"properties":{"id":"firms:2026-08-08:0154:41.405:1.998","confidence":"nominal","frp":1.4,"acq_date":"2026-08-08","acq_time":"0154","satellite":"N21","daynight":"N","source":"FIRMS"}},{"type":"Feature","id":"firms:2026-08-08:0154:135","geometry":{"type":"Point","coordinates":[0.54205,40.57597]},"properties":{"id":"firms:2026-08-08:0154:40.576:0.542","confidence":"nominal","frp":1.66,"acq_date":"2026-08-08","acq_time":"0154","satellite":"N21","daynight":"N","source":"FIRMS"}},{"type":"Feature","id":"firms:2026-08-08:0154:136","geometry":{"type":"Point","coordinates":[-0.91804,37.57055]},"properties":{"id":"firms:2026-08-08:0154:37.571:-0.918","confidence":"nominal","frp":1.71,"acq_date":"2026-08-08","acq_time":"0154","satellite":"N21","daynight":"N","source":"FIRMS"}},{"type":"Feature","id":"firms:2026-08-08:0156:137","geometry":{"type":"Point","coordinates":[-6.70076,37.49467]},"properties":{"id":"firms:2026-08-08:0156:37.495:-6.701","confidence":"nominal","frp":2.22,"acq_date":"2026-08-08","acq_time":"0156","satellite":"N21","daynight":"N","source":"FIRMS"}},{"type":"Feature","id":"firms:2026-08-08:0156:138","geometry":{"type":"Point","coordinates":[-6.89765,37.18079]},"properties":{"id":"firms:2026-08-08:0156:37.181:-6.898","confidence":"nominal","frp":2.68,"acq_date":"2026-08-08","acq_time":"0156","satellite":"N21","daynight":"N","source":"FIRMS"}},{"type":"Feature","id":"firms:2026-08-08:1316:139","geometry":{"type":"Point","coordinates":[-0.65807,39.70747]},"properties":{"id":"firms:2026-08-08:1316:39.707:-0.658","confidence":"nominal","frp":6.14,"acq_date":"2026-08-08","acq_time":"1316","satellite":"N21","daynight":"D","source":"FIRMS"}},{"type":"Feature","id":"firms:2026-08-08:1316:140","geometry":{"type":"Point","coordinates":[-8.26556,40.11314]},"properties":{"id":"firms:2026-08-08:1316:40.113:-8.266","confidence":"nominal","frp":8.87,"acq_date":"2026-08-08","acq_time":"1316","satellite":"N21","daynight":"D","source":"FIRMS"}},{"type":"Feature","id":"firms:2026-08-08:1316:141","geometry":{"type":"Point","coordinates":[1.11631,41.79599]},"properties":{"id":"firms:2026-08-08:1316:41.796:1.116","confidence":"nominal","frp":6.74,"acq_date":"2026-08-08","acq_time":"1316","satellite":"N21","daynight":"D","source":"FIRMS"}},{"type":"Feature","id":"firms:2026-08-09:0137:142","geometry":{"type":"Point","coordinates":[-6.6749,37.36071]},"properties":{"id":"firms:2026-08-09:0137:37.361:-6.675","confidence":"nominal","frp":0.78,"acq_date":"2026-08-09","acq_time":"0137","satellite":"N21","daynight":"N","source":"FIRMS"}},{"type":"Feature","id":"firms:2026-08-09:0134:143","geometry":{"type":"Point","coordinates":[-3.84346,43.40857]},"properties":{"id":"firms:2026-08-09:0134:43.409:-3.843","confidence":"nominal","frp":0.58,"acq_date":"2026-08-09","acq_time":"0134","satellite":"N21","daynight":"N","source":"FIRMS"}},{"type":"Feature","id":"firms:2026-08-09:0134:144","geometry":{"type":"Point","coordinates":[-1.51121,42.92156]},"properties":{"id":"firms:2026-08-09:0134:42.922:-1.511","confidence":"nominal","frp":0.49,"acq_date":"2026-08-09","acq_time":"0134","satellite":"N21","daynight":"N","source":"FIRMS"}},{"type":"Feature","id":"firms:2026-08-09:0134:145","geometry":{"type":"Point","coordinates":[4.25971,39.91402]},"properties":{"id":"firms:2026-08-09:0134:39.914:4.260","confidence":"nominal","frp":1.16,"acq_date":"2026-08-09","acq_time":"0134","satellite":"N21","daynight":"N","source":"FIRMS"}},{"type":"Feature","id":"firms:2026-08-09:0315:146","geometry":{"type":"Point","coordinates":[-9.08787,42.98237]},"properties":{"id":"firms:2026-08-09:0315:42.982:-9.088","confidence":"nominal","frp":1.14,"acq_date":"2026-08-09","acq_time":"0315","satellite":"N21","daynight":"N","source":"FIRMS"}},{"type":"Feature","id":"firms:2026-08-09:0315:147","geometry":{"type":"Point","coordinates":[-7.97179,42.60802]},"properties":{"id":"firms:2026-08-09:0315:42.608:-7.972","confidence":"nominal","frp":0.88,"acq_date":"2026-08-09","acq_time":"0315","satellite":"N21","daynight":"N","source":"FIRMS"}},{"type":"Feature","id":"firms:2026-08-09:0315:148","geometry":{"type":"Point","coordinates":[-7.34755,41.24948]},"properties":{"id":"firms:2026-08-09:0315:41.249:-7.348","confidence":"nominal","frp":0.7,"acq_date":"2026-08-09","acq_time":"0315","satellite":"N21","daynight":"N","source":"FIRMS"}},{"type":"Feature","id":"firms:2026-08-09:0315:149","geometry":{"type":"Point","coordinates":[-8.41868,40.28832]},"properties":{"id":"firms:2026-08-09:0315:40.288:-8.419","confidence":"nominal","frp":1.06,"acq_date":"2026-08-09","acq_time":"0315","satellite":"N21","daynight":"N","source":"FIRMS"}},{"type":"Feature","id":"firms:2026-08-09:0315:150","geometry":{"type":"Point","coordinates":[-9.08051,38.63057]},"properties":{"id":"firms:2026-08-09:0315:38.631:-9.081","confidence":"nominal","frp":1.63,"acq_date":"2026-08-09","acq_time":"0315","satellite":"N21","daynight":"N","source":"FIRMS"}}],"meta":{"source":"NASA FIRMS VIIRS (Suomi-NPP + NOAA-20 + NOAA-21) Europe 24h","filtered":"Spain approx · confidence nominal/high · clustered ~0.02°","count":151,"updated":"2026-08-09T20:20:06.028Z"}}