{"type":"FeatureCollection","features":[{"type":"Feature","id":1226,"geometry":{"type":"Point","coordinates":[-6.7427777781871869,37.250555555621744]},"properties":{"OID_ENTERO":1226,"ESRI_OID":1226,"TERMINO_MUNICIPAL":"Lucena del Puerto","PROVINCIA":"HUELVA","TIPO_INCIDENTE":"IIFF INCENDIOS FORESTALES","ESTADO":"CONTROLADO","FECHA":1785888000000,"HORA":"16:00:42","X":-750602.58875442273,"Y":4474088.7819907675,"GRUPOS_ESPECIALISTAS":1,"BRICAS":0,"VEHICULOS":2,"TECNICOS":0,"MEDIOS_AEREOS":0,"UMIF":0,"GRUPOS_APOYO":0,"UNASIF_ACO":0}},{"type":"Feature","id":1236,"geometry":{"type":"Point","coordinates":[-6.7088888888910345,37.462222222115876]},"properties":{"OID_ENTERO":1236,"ESRI_OID":1236,"TERMINO_MUNICIPAL":"Niebla","PROVINCIA":"HUELVA","TIPO_INCIDENTE":"IIFF INCENDIOS FORESTALES","ESTADO":"ACTIVO","FECHA":1785974400000,"HORA":"18:38:38","X":-746830.09489976184,"Y":4503731.9387149382,"GRUPOS_ESPECIALISTAS":18,"BRICAS":4,"VEHICULOS":14,"TECNICOS":18,"MEDIOS_AEREOS":19,"UMIF":0,"GRUPOS_APOYO":0,"UNASIF_ACO":0}},{"type":"Feature","id":1249,"geometry":{"type":"Point","coordinates":[-6.8026141002233054,37.779972499935205]},"properties":{"OID_ENTERO":1249,"ESRI_OID":1249,"TERMINO_MUNICIPAL":"Almonaster la Real","PROVINCIA":"HUELVA","TIPO_INCIDENTE":"IIFF INCENDIOS FORESTALES","ESTADO":"CONTROLADO","FECHA":1786147200000,"HORA":"11:20:00","X":-757263.53767514275,"Y":4548389.7657091497,"GRUPOS_ESPECIALISTAS":0,"BRICAS":0,"VEHICULOS":0,"TECNICOS":0,"MEDIOS_AEREOS":0,"UMIF":0,"GRUPOS_APOYO":0,"UNASIF_ACO":0}},{"type":"Feature","id":1263,"geometry":{"type":"Point","coordinates":[-3.4591666666451215,37.271666666974745]},"properties":{"OID_ENTERO":1263,"ESRI_OID":1263,"TERMINO_MUNICIPAL":"Huétor de Santillán","PROVINCIA":"GRANADA","TIPO_INCIDENTE":"IIFF INCENDIOS FORESTALES","ESTADO":"ACTIVO","FECHA":1786233600000,"HORA":"16:17:00","X":-385072.6719023987,"Y":4477041.569556931,"GRUPOS_ESPECIALISTAS":5,"BRICAS":1,"VEHICULOS":6,"TECNICOS":4,"MEDIOS_AEREOS":5,"UMIF":0,"GRUPOS_APOYO":0,"UNASIF_ACO":0}},{"type":"Feature","id":1264,"geometry":{"type":"Point","coordinates":[-7.3304380004342304,37.305020000335588]},"properties":{"OID_ENTERO":1264,"ESRI_OID":1264,"TERMINO_MUNICIPAL":"Villablanca","PROVINCIA":"HUELVA","TIPO_INCIDENTE":"IIFF INCENDIOS FORESTALES","ESTADO":"ACTIVO","FECHA":1786233600000,"HORA":"18:49:00","X":-816020.62545166281,"Y":4481708.3510530302,"GRUPOS_ESPECIALISTAS":1,"BRICAS":0,"VEHICULOS":1,"TECNICOS":0,"MEDIOS_AEREOS":0,"UMIF":0,"GRUPOS_APOYO":0,"UNASIF_ACO":0}},{"type":"Feature","id":1265,"geometry":{"type":"Point","coordinates":[-3.2522222220035286,36.931111110840746]},"properties":{"OID_ENTERO":1265,"ESRI_OID":1265,"TERMINO_MUNICIPAL":"Cástaras","PROVINCIA":"GRANADA","TIPO_INCIDENTE":"IIFF INCENDIOS FORESTALES","ESTADO":"ACTIVO","FECHA":1786233600000,"HORA":"19:28:00","X":-362035.72172434622,"Y":4429508.9095376786,"GRUPOS_ESPECIALISTAS":8,"BRICAS":0,"VEHICULOS":4,"TECNICOS":2,"MEDIOS_AEREOS":0,"UMIF":0,"GRUPOS_APOYO":0,"UNASIF_ACO":0}}]}