{"type":"FeatureCollection","crs":{"type":"name","properties":{"name":"EPSG:4326"}},"features":[{"type":"Feature","id":609,"geometry":{"type":"Point","coordinates":[-3.245553268,40.934004624]},"properties":{"SiO_máxima":2,"SiO_actual":0,"Año":2026,"Mes":7,"Día":16,"CódigoIF":2026190275,"Siniestro":"FORESTAL","Tipo_Siniestro":"ARBOLADO","Tipo_Siniestro_Descripción":"Incendio forestal arbolado","Provincia":"GUADALAJARA","Comarca":"SIERRA","Municipio":"MIERLA, LA","EntidadMenor":"MIERLA (LA)","UTM_X":479328,"UTM_Y":4531460,"Detección":1784202900000,"Control":1785751200000,"Extinción":null,"Estado":"CONTROLADO","Estado_parte":"INCOMPLETO","SupForestal":33079.19,"SupNoForestal":1396.19,"SupTotal":34475.38,"Clase_siniestro_forestal":"Incendio","FalsaAlarma":"NO","Latitud":40.934004624,"Longitud":-3.245553268,"Fecha_Exportación":1786282108000,"FID":609}},{"type":"Feature","id":846,"geometry":{"type":"Point","coordinates":[-2.856231365,41.099296919]},"properties":{"SiO_máxima":1,"SiO_actual":0,"Año":2026,"Mes":8,"Día":6,"CódigoIF":2026190324,"Siniestro":"FORESTAL","Tipo_Siniestro":"ARBOLADO","Tipo_Siniestro_Descripción":"Incendio forestal arbolado","Provincia":"GUADALAJARA","Comarca":"SIERRA","Municipio":"RIOFRÍO DEL LLANO","EntidadMenor":"CARDEÑOSA","UTM_X":512073,"UTM_Y":4549790,"Detección":1786029540000,"Control":1786072200000,"Extinción":null,"Estado":"CONTROLADO","Estado_parte":"INCOMPLETO","SupForestal":14.55,"SupNoForestal":0,"SupTotal":14.55,"Clase_siniestro_forestal":"Incendio","FalsaAlarma":"NO","Latitud":41.099296919,"Longitud":-2.856231365,"Fecha_Exportación":1786282108000,"FID":846}}]}